      2.10          N: GNSS NAV DATA                        RINEX VERSION / TYPE
fic2rin                                 09/21/2022 00:17:25 PGM / RUN BY / DATE
                                                            END OF HEADER
26 22  9 20 22  0  0.0  .229363795370D-03  .159161572810D-11  .000000000000D+00
     .670000000000D+02  .268750000000D+01  .527129099900D-08 -.876283852328D+00
     .100582838058D-06  .714101619087D-02  .635348260403D-05  .515355592155D+04
     .252000000000D+06  .191852450371D-06 -.167691194822D+01  .167638063431D-07
     .935943952771D+00  .244843750000D+03  .376194897822D+00 -.835677666472D-08
    -.429303596504D-09  .100000000000D+01  .222800000000D+04  .000000000000D+00
     .240000000000D+01  .000000000000D+00  .698491930962D-08  .670000000000D+02
     .244800000000D+06  .400000000000D+01
22 22  9 20 22  0  0.0  .331454444677D-03  .682121026330D-11  .000000000000D+00
     .164000000000D+03 -.396250000000D+02  .431125100948D-08 -.284054980172D+01
    -.210851430893D-05  .134417187655D-01  .103581696749D-04  .515374456787D+04
     .252000000000D+06  .188127160072D-06  .265444632112D+01 -.540167093277D-07
     .962116085323D+00  .176250000000D+03 -.184469811890D+01 -.758460164339D-08
     .331799535068D-09  .100000000000D+01  .222800000000D+04  .000000000000D+00
     .240000000000D+01  .000000000000D+00 -.791624188423D-08  .164000000000D+03
     .244800000000D+06  .400000000000D+01
17 22  9 20 22  0  0.0  .661134254187D-03  .375166564481D-11  .000000000000D+00
     .880000000000D+02  .755000000000D+02  .378622914021D-08 -.262308670739D+01
     .391714274883D-05  .137227217201D-01  .909715890884D-05  .515362601662D+04
     .252000000000D+06  .156462192535D-06 -.507819492012D+00  .186264514923D-07
     .977611528667D+00  .213843750000D+03 -.148034795967D+01 -.742530929394D-08
    -.137505727665D-09  .100000000000D+01  .222800000000D+04  .000000000000D+00
     .340000000000D+01  .000000000000D+00 -.111758708954D-07  .880000000000D+02
     .244800000000D+06  .400000000000D+01
11 22  9 20 22  0  0.0 -.181007198989D-04 -.318323145621D-11  .000000000000D+00
     .153000000000D+03  .477500000000D+02  .436661045828D-08 -.295164547424D+01
     .257417559624D-05  .729970983230D-03  .365078449249D-05  .515364027977D+04
     .252000000000D+06 -.279396772385D-07  .530070076621D+00  .186264514923D-07
     .963952843339D+00  .308687500000D+03 -.313189791303D+01 -.820998483597D-08
     .240009997380D-09  .100000000000D+01  .222800000000D+04  .000000000000D+00
     .240000000000D+01  .000000000000D+00 -.838190317154D-08  .921000000000D+03
     .244800000000D+06  .400000000000D+01
23 22  9 20 22  0  0.0 -.245869159698D-06 -.568434188608D-12  .000000000000D+00
     .191000000000D+03 -.738125000000D+02  .434910972931D-08  .641328921558D+00
    -.384636223316D-05  .265759450849D-02  .434741377831D-05  .515362545586D+04
     .252000000000D+06  .316649675369D-07  .149570076411D+01  .260770320892D-07
     .969963953246D+00  .301125000000D+03  .301091593230D+01 -.811855245601D-08
    -.175007289756D-10  .100000000000D+01  .222800000000D+04  .000000000000D+00
     .240000000000D+01  .000000000000D+00 -.838190317154D-08  .703000000000D+03
     .244800000000D+06  .400000000000D+01
18 22  9 20 22  0  0.0  .417758710682D-04 -.128466126625D-10  .000000000000D+00
     .135000000000D+03  .465625000000D+02  .417017370447D-08  .167759273031D+01
     .250898301601D-05  .284405821003D-02  .405125319958D-05  .515372565842D+04
     .252000000000D+06 -.204890966415D-07  .495993862055D+00  .465661287308D-07
     .972559978913D+00  .307125000000D+03  .307302370681D+01 -.806355016494D-08
     .158578033983D-09  .100000000000D+01  .222800000000D+04  .000000000000D+00
     .240000000000D+01  .000000000000D+00 -.838190317154D-08  .391000000000D+03
     .244800000000D+06  .400000000000D+01
20 22  9 20 22  0  0.0  .484791118652D-03 -.306954461848D-11  .000000000000D+00
     .910000000000D+02 -.692500000000D+02  .488770359247D-08  .249978800131D+01
    -.356696546078D-05  .476325955242D-02  .312738120556D-05  .515365695190D+04
     .252000000000D+06 -.502914190292D-07  .136302323756D+01  .149011611938D-07
     .944512606284D+00  .307750000000D+03 -.309234528366D+01 -.841213611352D-08
    -.196436753808D-10  .100000000000D+01  .222800000000D+04  .000000000000D+00
     .485000000000D+01  .000000000000D+00 -.838190317154D-08  .910000000000D+02
     .244800000000D+06  .400000000000D+01
3  22  9 21  0  0  0.0 -.354188028723D-03 -.579802872380D-11  .000000000000D+00
     .360000000000D+02 -.797187500000D+02  .418267422517D-08  .134443184994D+01
    -.425428152084D-05  .451748096384D-02  .479444861412D-05  .515355099869D+04
     .259200000000D+06 -.689178705215D-07  .152431469419D+01  .931322574615D-08
     .975086204369D+00  .292906250000D+03  .105833440177D+01 -.808712257540D-08
    -.985755346381D-10  .100000000000D+01  .222800000000D+04  .000000000000D+00
     .340000000000D+01  .000000000000D+00  .186264514923D-08  .360000000000D+02
     .252000000000D+06  .400000000000D+01
2  22  9 21  0  0  0.0 -.645327381790D-03  .136424205266D-11  .000000000000D+00
     .260000000000D+02  .655000000000D+02  .415695886831D-08  .200196421307D+01
     .317580997944D-05  .200059164781D-01  .392086803913D-05  .515489517593D+04
     .259200000000D+06  .309199094772D-06  .397618127648D+00 -.763684511185D-07
     .966702181358D+00  .299656250000D+03 -.139371854458D+01 -.782746890264D-08
     .132148361653D-09  .100000000000D+01  .222800000000D+04  .000000000000D+00
     .240000000000D+01  .000000000000D+00 -.172294676304D-07  .260000000000D+02
     .252000000000D+06  .400000000000D+01
1  22  9 21  0  0  0.0  .280470121652D-03 -.648014975013D-11  .000000000000D+00
     .980000000000D+02  .436250000000D+02  .379194366396D-08  .244717034754D+01
     .206381082535D-05  .119974432746D-01  .383332371712D-05  .515365846252D+04
     .259200000000D+06  .484287738800D-07  .491319913401D+00 -.227242708206D-06
     .988723776863D+00  .318968750000D+03  .943836069578D+00 -.777996692399D-08
     .190365072327D-09  .100000000000D+01  .222800000000D+04  .000000000000D+00
     .240000000000D+01  .000000000000D+00  .512227416039D-08  .980000000000D+02
     .252000000000D+06  .400000000000D+01
7  22  9 21  0  0  0.0  .305894762278D-03 -.318323145621D-11  .000000000000D+00
     .380000000000D+02  .236875000000D+02  .509342644737D-08  .181669865245D+01
     .113435089588D-05  .164031819440D-01  .734068453312D-05  .515363073730D+04
     .259200000000D+06 -.400468707085D-06 -.266063046059D+01 -.180676579475D-06
     .950871622980D+00  .237093750000D+03 -.224187225091D+01 -.819641284207D-08
     .311441544219D-09  .100000000000D+01  .222800000000D+04  .000000000000D+00
     .240000000000D+01  .000000000000D+00 -.111758708954D-07  .380000000000D+02
     .252000000000D+06  .400000000000D+01
5  22  9 21  0  0  0.0 -.974284484982D-04 -.147792889038D-11  .000000000000D+00
     .860000000000D+02 -.813750000000D+02  .444625663301D-08 -.131238937385D+01
    -.398419797421D-05  .611413910519D-02  .362843275070D-05  .515379005241D+04
     .259200000000D+06  .124797224998D-06  .148102719692D+01  .111758708954D-06
     .962109639705D+00  .305843750000D+03  .111236469020D+01 -.823498587736D-08
    -.442875590403D-10  .100000000000D+01  .222800000000D+04  .000000000000D+00
     .240000000000D+01  .000000000000D+00 -.111758708954D-07  .860000000000D+02
     .252000000000D+06  .400000000000D+01
6  22  9 21  0  0  0.0  .467411242425D-03  .121644916362D-10  .000000000000D+00
     .950000000000D+02  .483437500000D+02  .387266131189D-08  .269143168434D+01
     .265054404736D-05  .250605319161D-02  .379048287868D-05  .515380170250D+04
     .259200000000D+06 -.428408384323D-07  .483050641684D+00 -.372529029846D-07
     .988030953489D+00  .322437500000D+03 -.926011795240D+00 -.788997150613D-08
     .163221084528D-09  .100000000000D+01  .222800000000D+04  .000000000000D+00
     .240000000000D+01  .000000000000D+00  .372529029846D-08  .950000000000D+02
     .252000000000D+06  .400000000000D+01
4  22  9 21  0  0  0.0 -.115696340799D-03  .568434188608D-11  .000000000000D+00
     .400000000000D+02 -.442812500000D+02  .430517932800D-08 -.192380233020D+01
    -.251643359661D-05  .201511359774D-02  .106059014797D-04  .515375572968D+04
     .259200000000D+06 -.484287738800D-07  .260598244183D+01  .745058059692D-08
     .962063873776D+00  .178812500000D+03 -.309790735086D+01 -.776925219197D-08
     .326085011321D-09  .100000000000D+01  .222800000000D+04  .000000000000D+00
     .240000000000D+01  .000000000000D+00 -.465661287308D-08  .552000000000D+03
     .252000000000D+06  .400000000000D+01
21 22  9 21  0  0  0.0  .159183982760D-03 -.454747350886D-12  .000000000000D+00
     .800000000000D+01  .541875000000D+02  .448840124564D-08 -.156652788148D+01
     .308267772198D-05  .243544381810D-01  .487081706524D-05  .515370155334D+04
     .259200000000D+06 -.488013029099D-06  .394556560487D+00  .875443220139D-07
     .961013181142D+00  .293750000000D+03 -.893488926109D+00 -.836856286995D-08
     .304298389535D-09  .100000000000D+01  .222800000000D+04  .000000000000D+00
     .240000000000D+01  .000000000000D+00 -.102445483208D-07  .800000000000D+01
     .252000000000D+06  .400000000000D+01
12 22  9 21  0  0  0.0 -.281552784145D-03 -.602540239925D-11  .000000000000D+00
     .430000000000D+02  .231250000000D+01  .460947771753D-08  .111241322397D+01
     .130385160446D-07  .850350700784D-02  .719539821148D-05  .515373421478D+04
     .259200000000D+06 -.204890966415D-06 -.154649235087D+01 -.242143869400D-07
     .967569288013D+00  .245937500000D+03  .131751552365D+01 -.810855203945D-08
    -.476091259683D-09  .100000000000D+01  .222800000000D+04  .000000000000D+00
     .240000000000D+01  .000000000000D+00 -.125728547573D-07  .430000000000D+02
     .252000000000D+06  .400000000000D+01
